{"type": "FeatureCollection", "features": [ {"type": "Feature", "properties": {"norad_id": 66584, "name": "STARLINK-35939", "group": "last-30-days", "lat": 8.589426100372316, "lon": 51.67144441405359, "alt_km": 421.1114841116578, "timestamp": "2025-12-26T03:50:10.805370+00:00", "meta": {"OBJECT_NAME": "STARLINK-35939", "OBJECT_ID": "2025-268AD", "EPOCH": "2025-12-25T20:00:01.999008", "MEAN_MOTION": 15.49564014, "ECCENTRICITY": 0.0001295, "INCLINATION": 43.0005, "RA_OF_ASC_NODE": 44.2482, "ARG_OF_PERICENTER": 269.6393, "MEAN_ANOMALY": 80.4799, "EPHEMERIS_TYPE": 0, "CLASSIFICATION_TYPE": "U", "NORAD_CAT_ID": 66584, "ELEMENT_SET_NO": 999, "REV_AT_EPOCH": 612, "BSTAR": -0.041464, "MEAN_MOTION_DOT": -0.02084754, "MEAN_MOTION_DDOT": 0}, "tle": {"line1": "1 66584U 25268AD  25359.83335647 -.02084754  00000+0 -41464-1 0  9996", "line2": "2 66584  43.0005  44.2482 0001295 269.6393  80.4799 15.49564014  6127"}}, "geometry": {"type": "Point", "coordinates": [51.67144441405359, 8.589426100372316]}}, {"type": "Feature", "properties": {"norad_id": 66585, "name": "STARLINK-35963", "group": "last-30-days", "lat": -23.49317883826164, "lon": -109.47019509868855, "alt_km": 463.4098888257886, "timestamp": "2025-12-26T03:50:10.805382+00:00", "meta": {"OBJECT_NAME": "STARLINK-35963", "OBJECT_ID": "2025-268AE", "EPOCH": "2025-12-25T20:00:01.999008", "MEAN_MOTION": 15.36293302, "ECCENTRICITY": 0.000106, "INCLINATION": 43.0007, "RA_OF_ASC_NODE": 44.5932, "ARG_OF_PERICENTER": 283.0997, "MEAN_ANOMALY": 285.6522, "EPHEMERIS_TYPE": 0, "CLASSIFICATION_TYPE": "U", "NORAD_CAT_ID": 66585, "ELEMENT_SET_NO": 999, "REV_AT_EPOCH": 612, "BSTAR": -0.063706, "MEAN_MOTION_DOT": -0.02078251, "MEAN_MOTION_DDOT": 0}, "tle": {"line1": "1 66585U 25268AE  25359.83335647 -.02078251  00000+0 -63706-1 0  9995", "line2": "2 66585  43.0007  44.5932 0001060 283.0997 285.6522 15.36293302  6121"}}, "geometry": {"type": "Point", "coordinates": [-109.47019509868855, -23.49317883826164]}}, {"type": "Feature", "properties": {"norad_id": 66586, "name": "TJS-21", "group": "last-30-days", "lat": -63.04228910131324, "lon": 78.70530380339886, "alt_km": 2118.7644833591285, "timestamp": "2025-12-26T03:50:10.805396+00:00", "meta": {"OBJECT_NAME": "TJS-21", "OBJECT_ID": "2025-269A", "EPOCH": "2025-12-18T16:58:10.473888", "MEAN_MOTION": 2.00580748, "ECCENTRICITY": 0.6806869, "INCLINATION": 63.2733, "RA_OF_ASC_NODE": 161.7218, "ARG_OF_PERICENTER": 269.7428, "MEAN_ANOMALY": 18.6663, "EPHEMERIS_TYPE": 0, "CLASSIFICATION_TYPE": "U", "NORAD_CAT_ID": 66586, "ELEMENT_SET_NO": 999, "REV_AT_EPOCH": 55, "BSTAR": -0.059507049, "MEAN_MOTION_DOT": 1.084e-05, "MEAN_MOTION_DDOT": 0}, "tle": {"line1": "1 66586U 25269A   25352.70706567  .00001084  00000+0 -59507-1 0  9990", "line2": "2 66586  63.2733 161.7218 6806869 269.7428  18.6663  2.00580748   558"}}, "geometry": {"type": "Point", "coordinates": [78.70530380339886, -63.04228910131324]}}, {"type": "Feature", "properties": {"norad_id": 66588, "name": "STARLINK-36076", "group": "last-30-days", "lat": 10.46330457066638, "lon": 126.8862838325874, "alt_km": 442.0902542175472, "timestamp": "2025-12-26T03:50:10.805411+00:00", "meta": {"OBJECT_NAME": "STARLINK-36076", "OBJECT_ID": "2025-270A", "EPOCH": "2025-12-25T15:19:22.836864", "MEAN_MOTION": 15.40737993, "ECCENTRICITY": 5.25e-05, "INCLINATION": 42.9959, "RA_OF_ASC_NODE": 118.4597, "ARG_OF_PERICENTER": 283.3048, "MEAN_ANOMALY": 76.775, "EPHEMERIS_TYPE": 0, "CLASSIFICATION_TYPE": "U", "NORAD_CAT_ID": 66588, "ELEMENT_SET_NO": 999, "REV_AT_EPOCH": 633, "BSTAR": 0.0010964, "MEAN_MOTION_DOT": 0.00045829, "MEAN_MOTION_DDOT": 0}, "tle": {"line1": "1 66588U 25270A   25359.63845876  .00045829  00000+0  10964-2 0  9999", "line2": "2 66588  42.9959 118.4597 0000525 283.3048  76.7750 15.40737993  6330"}}, "geometry": {"type": "Point", "coordinates": [126.8862838325874, 10.46330457066638]}}, {"type": "Feature", "properties": {"norad_id": 66589, "name": "STARLINK-35447", "group": "last-30-days", "lat": 38.152878382634206, "lon": -122.2482454572604, "alt_km": 438.52284500725636, "timestamp": "2025-12-26T03:50:10.805422+00:00", "meta": {"OBJECT_NAME": "STARLINK-35447", "OBJECT_ID": "2025-270B", "EPOCH": "2025-12-25T14:53:33.760896", "MEAN_MOTION": 15.4069884, "ECCENTRICITY": 0.0001173, "INCLINATION": 43.0008, "RA_OF_ASC_NODE": 118.3206, "ARG_OF_PERICENTER": 257.0782, "MEAN_ANOMALY": 102.9943, "EPHEMERIS_TYPE": 0, "CLASSIFICATION_TYPE": "U", "NORAD_CAT_ID": 66589, "ELEMENT_SET_NO": 999, "REV_AT_EPOCH": 644, "BSTAR": 0.00080611, "MEAN_MOTION_DOT": 0.00033516, "MEAN_MOTION_DDOT": 0}, "tle": {"line1": "1 66589U 25270B   25359.62052964  .00033516  00000+0  80611-3 0  9994", "line2": "2 66589  43.0008 118.3206 0001173 257.0782 102.9943 15.40698840  6442"}}, "geometry": {"type": "Point", "coordinates": [-122.2482454572604, 38.152878382634206]}}, {"type": "Feature", "properties": {"norad_id": 66590, "name": "STARLINK-35429", "group": "last-30-days", "lat": -14.902251046480169, "lon": -48.40454868161055, "alt_km": 444.9775256827761, "timestamp": "2025-12-26T03:50:10.805433+00:00", "meta": {"OBJECT_NAME": "STARLINK-35429", "OBJECT_ID": "2025-270C", "EPOCH": "2025-12-25T17:37:41.589696", "MEAN_MOTION": 15.40721997, "ECCENTRICITY": 0.0001639, "INCLINATION": 43.002, "RA_OF_ASC_NODE": 117.4547, "ARG_OF_PERICENTER": 273.6487, "MEAN_ANOMALY": 86.4182, "EPHEMERIS_TYPE": 0, "CLASSIFICATION_TYPE": "U", "NORAD_CAT_ID": 66590, "ELEMENT_SET_NO": 999, "REV_AT_EPOCH": 646, "BSTAR": 0.0017332, "MEAN_MOTION_DOT": 0.00072845, "MEAN_MOTION_DDOT": 0}, "tle": {"line1": "1 66590U 25270C   25359.73450914  .00072845  00000+0  17332-2 0  9992", "line2": "2 66590  43.0020 117.4547 0001639 273.6487  86.4182 15.40721997  6462"}}, "geometry": {"type": "Point", "coordinates": [-48.40454868161055, -14.902251046480169]}}, {"type": "Feature", "properties": {"norad_id": 66591, "name": "STARLINK-36058", "group": "last-30-days", "lat": -40.09698553908416, "lon": 50.164206647201574, "alt_km": 446.10675172648735, "timestamp": "2025-12-26T03:50:10.805443+00:00", "meta": {"OBJECT_NAME": "STARLINK-36058", "OBJECT_ID": "2025-270D", "EPOCH": "2025-12-25T17:15:06.627744", "MEAN_MOTION": 15.40713232, "ECCENTRICITY": 0.0001599, "INCLINATION": 43.0013, "RA_OF_ASC_NODE": 117.3312, "ARG_OF_PERICENTER": 265.6343, "MEAN_ANOMALY": 94.4331, "EPHEMERIS_TYPE": 0, "CLASSIFICATION_TYPE": "U", "NORAD_CAT_ID": 66591, "ELEMENT_SET_NO": 999, "REV_AT_EPOCH": 635, "BSTAR": 0.0012052, "MEAN_MOTION_DOT": 0.00050395, "MEAN_MOTION_DDOT": 0}, "tle": {"line1": "1 66591U 25270D   25359.71882671  .00050395  00000+0  12052-2 0  9990", "line2": "2 66591  43.0013 117.3312 0001599 265.6343  94.4331 15.40713232  6357"}}, "geometry": {"type": "Point", "coordinates": [50.164206647201574, -40.09698553908416]}}, {"type": "Feature", "properties": {"norad_id": 66592, "name": "STARLINK-36066", "group": "last-30-days", "lat": 38.22862878637101, "lon": 173.04622817281526, "alt_km": 438.7713963019869, "timestamp": "2025-12-26T03:50:10.805454+00:00", "meta": {"OBJECT_NAME": "STARLINK-36066", "OBJECT_ID": "2025-270E", "EPOCH": "2025-12-25T16:39:49.375872", "MEAN_MOTION": 15.40707588, "ECCENTRICITY": 0.0001628, "INCLINATION": 42.9987, "RA_OF_ASC_NODE": 118.0173, "ARG_OF_PERICENTER": 278.605, "MEAN_ANOMALY": 81.4622, "EPHEMERIS_TYPE": 0, "CLASSIFICATION_TYPE": "U", "NORAD_CAT_ID": 66592, "ELEMENT_SET_NO": 999, "REV_AT_EPOCH": 624, "BSTAR": 0.00046998, "MEAN_MOTION_DOT": 0.00019383, "MEAN_MOTION_DDOT": 0}, "tle": {"line1": "1 66592U 25270E   25359.69432148  .00019383  00000+0  46998-3 0  9997", "line2": "2 66592  42.9987 118.0173 0001628 278.6050  81.4622 15.40707588  6245"}}, "geometry": {"type": "Point", "coordinates": [173.04622817281526, 38.22862878637101]}}, {"type": "Feature", "properties": {"norad_id": 66593, "name": "STARLINK-36031", "group": "last-30-days", "lat": 18.44093597393318, "lon": -85.84424962588731, "alt_km": 441.4707551206011, "timestamp": "2025-12-26T03:50:10.805467+00:00", "meta": {"OBJECT_NAME": "STARLINK-36031", "OBJECT_ID": "2025-270F", "EPOCH": "2025-12-25T17:50:35.503872", "MEAN_MOTION": 15.40707259, "ECCENTRICITY": 0.0001878, "INCLINATION": 43.0021, "RA_OF_ASC_NODE": 117.5214, "ARG_OF_PERICENTER": 259.4699, "MEAN_ANOMALY": 100.5946, "EPHEMERIS_TYPE": 0, "CLASSIFICATION_TYPE": "U", "NORAD_CAT_ID": 66593, "ELEMENT_SET_NO": 999, "REV_AT_EPOCH": 635, "BSTAR": 0.00071243, "MEAN_MOTION_DOT": 0.00029579, "MEAN_MOTION_DDOT": 0}, "tle": {"line1": "1 66593U 25270F   25359.74346648  .00029579  00000+0  71243-3 0  9992", "line2": "2 66593  43.0021 117.5214 0001878 259.4699 100.5946 15.40707259  6359"}}, "geometry": {"type": "Point", "coordinates": [-85.84424962588731, 18.44093597393318]}}, {"type": "Feature", "properties": {"norad_id": 66594, "name": "STARLINK-36032", "group": "last-30-days", "lat": -40.387535656285266, "lon": 0.7958109942823697, "alt_km": 446.88599457676173, "timestamp": "2025-12-26T03:50:10.805477+00:00", "meta": {"OBJECT_NAME": "STARLINK-36032", "OBJECT_ID": "2025-270G", "EPOCH": "2025-12-25T17:24:47.765376", "MEAN_MOTION": 15.40743398, "ECCENTRICITY": 5.93e-05, "INCLINATION": 42.9988, "RA_OF_ASC_NODE": 117.3844, "ARG_OF_PERICENTER": 314.5703, "MEAN_ANOMALY": 45.5105, "EPHEMERIS_TYPE": 0, "CLASSIFICATION_TYPE": "U", "NORAD_CAT_ID": 66594, "ELEMENT_SET_NO": 999, "REV_AT_EPOCH": 616, "BSTAR": 0.0011846, "MEAN_MOTION_DOT": 0.00049574, "MEAN_MOTION_DDOT": 0}, "tle": {"line1": "1 66594U 25270G   25359.72555284  .00049574  00000+0  11846-2 0  9998", "line2": "2 66594  42.9988 117.3844 0000593 314.5703  45.5105 15.40743398  6167"}}, "geometry": {"type": "Point", "coordinates": [0.7958109942823697, -40.387535656285266]}}]}